NORAD_CAT_ID,OBJECT_NAME,OBJECT_TYPE,EPOCH,MEAN_MOTION,ECCENTRICITY,INCLINATION,RA_OF_ASC_NODE,ARG_OF_PERICENTER,MEAN_ANOMALY,BSTAR,MEAN_MOTION_DOT,MEAN_MOTION_DDOT,TLE_LINE0,TLE_LINE1,TLE_LINE2,SEMIMAJOR_AXIS,PERIOD,APOGEE,PERIGEE,DECAYED
52098.0,STARLINK-3665,PAYLOAD,2022-08-18 14:00:01,15.08848265,0.0001365,53.2185,161.0429,66.5723,9.8681,0.00025506,3.775e-05,0.0,0 STARLINK-3665,1 52098U 22029L   22230.58334491  .00003775  00000-0  25506-3 0  9998,2 52098  53.2185 161.0429 0001365  66.5723   9.8681 15.08848265  1300,6917.855,95.437,540.664,538.776,0.0
52098.0,STARLINK-3665,PAYLOAD,2022-08-18 22:00:00,15.08878171,0.0001374,53.2185,159.547,66.4909,21.5395,-0.0028824,-0.00045917,0.0,0 STARLINK-3665,1 52098U 22029L   22230.91667824 -.00045917  00000-0 -28824-2 0  9995,2 52098  53.2185 159.5470 0001374  66.4909  21.5395 15.08878171 24580,6917.764,95.435,540.5790000000002,538.678,0.0
52098.0,STARLINK-3665,PAYLOAD,2022-08-19 14:00:01,15.08803696,0.0001356,53.2181,156.554,67.5486,43.6965,0.0013307,0.00020932,0.0,0 STARLINK-3665,1 52098U 22029L   22231.58334491  .00020932  00000-0  13307-2 0  9998,2 52098  53.2181 156.5540 0001356  67.5486  43.6965 15.08803696  1306,6917.991,95.44,540.794,538.918,0.0
52098.0,STARLINK-3665,PAYLOAD,2022-08-19 22:00:00,15.08835675,0.0001439,53.2181,155.0583,68.4884,54.3093,-0.0013216,-0.00021257,0.0,0 STARLINK-3665,1 52098U 22029L   22231.91667824 -.00021257  00000-0 -13216-2 0  9996,2 52098  53.2181 155.0583 0001439  68.4884  54.3093 15.08835675 24736,6917.894,95.438,540.754,538.763,0.0
52098.0,STARLINK-3665,PAYLOAD,2022-08-20 14:00:01,15.08799931,0.0001481,53.2177,152.0653,70.4912,75.4751,0.0013052,0.00020522,0.0,0 STARLINK-3665,1 52098U 22029L   22232.58334491  .00020522  00000-0  13052-2 0  9991,2 52098  53.2177 152.0653 0001481  70.4912  75.4751 15.08799931  1305,6918.003000000002,95.44,540.8919999999998,538.8430000000002,0.0
52098.0,STARLINK-3665,PAYLOAD,2022-08-20 22:00:00,15.08829377,0.0001606,53.2178,150.5698,71.1654,86.3495,-0.0013577,-0.00021825,0.0,0 STARLINK-3665,1 52098U 22029L   22232.91667824 -.00021825  00000-0 -13577-2 0  9998,2 52098  53.2178 150.5698 0001606  71.1654  86.3495 15.08829377 24880,6917.913000000001,95.438,540.889,538.6669999999998,0.0
52098.0,STARLINK-3665,PAYLOAD,2022-08-21 14:00:01,15.08806072,0.0001567,53.2175,147.5765,71.3095,109.3475,0.0023198,0.0003679,0.0,0 STARLINK-3665,1 52098U 22029L   22233.58334491  .00036790  00000-0  23198-2 0  9998,2 52098  53.2175 147.5765 0001567  71.3095 109.3475 15.08806072  1308,6917.984,95.44,540.933,538.765,0.0
52098.0,STARLINK-3665,PAYLOAD,2022-08-21 22:00:00,15.08843708,0.0001684,53.2177,146.0812,70.9235,121.2985,-0.001406,-0.00022597,0.0,0 STARLINK-3665,1 52098U 22029L   22233.91667824 -.00022597  00000-0 -14060-2 0  9994,2 52098  53.2177 146.0812 0001684  70.9235 121.2985 15.08843708 25030,6917.869000000002,95.437,540.899,538.569,0.0
52098.0,STARLINK-3665,PAYLOAD,2022-08-22 12:00:00,15.08837816,0.0001666999999999,53.218,143.4621,70.0966,52.4066,8.3245e-05,1.037e-05,0.0,0 STARLINK-3665,1 52098U 22029L   22234.50001157  .00001037  00000-0  83245-4 0  9998,2 52098  53.2180 143.4621 0001667  70.0966  52.4066 15.08837816  1308,6917.887,95.438,540.905,538.599,0.0
52098.0,STARLINK-3665,PAYLOAD,2022-08-22 22:00:00,15.08858668,0.000178,53.2181,141.5924,70.1623,156.8304,-0.001381,-0.00022211,0.0,0 STARLINK-3665,1 52098U 22029L   22234.91667824 -.00022211  00000-0 -13810-2 0  9990,2 52098  53.2181 141.5924 0001780  70.1623 156.8304 15.08858668  1303,6917.823,95.436,540.92,538.457,0.0
52098.0,STARLINK-3665,PAYLOAD,2022-08-23 14:00:01,15.08843518,0.0001705,53.2185,138.5988,71.3209,178.8904,0.00040498,6.164e-05,0.0,0 STARLINK-3665,1 52098U 22029L   22235.58334491  .00006164  00000-0  40498-3 0  9995,2 52098  53.2185 138.5988 0001705  71.3209 178.8904 15.08843518  1301,6917.87,95.437,540.914,538.555,0.0
52098.0,STARLINK-3665,PAYLOAD,2022-08-23 22:00:01,15.08844613,0.0001771,53.2181,137.1036,68.6505,193.229,-0.0014183,-0.00022792,0.0,0 STARLINK-3665,1 52098U 22029L   22235.91668981 -.00022792  00000-0 -14183-2 0  9994,2 52098  53.2181 137.1036 0001771  68.6505 193.2290 15.08844613  1303,6917.866,95.437,540.956,538.506,0.0
52098.0,STARLINK-3665,PAYLOAD,2022-08-24 14:00:01,15.08816818,0.0001714,53.2171,134.11,71.5187,213.486,0.0029481999999999,0.00046915,0.0,0 STARLINK-3665,1 52098U 22029L   22236.58334491  .00046915  00000-0  29482-2 0  9993,2 52098  53.2171 134.1100 0001714  71.5187 213.4860 15.08816818 25431,6917.951,95.439,541.002,538.631,0.0
52098.0,STARLINK-3665,PAYLOAD,2022-08-24 22:00:00,15.08856473,0.000181,53.2172,132.6149,68.8421,227.7492,-0.0013459,-0.00021654,0.0,0 STARLINK-3665,1 52098U 22029L   22236.91667824 -.00021654  00000-0 -13459-2 0  9991,2 52098  53.2172 132.6149 0001810  68.8421 227.7492 15.08856473  1305,6917.83,95.437,540.947,538.443,0.0
52098.0,STARLINK-3665,PAYLOAD,2022-08-25 06:00:02,15.088525699999998,0.0001819,53.2171,131.119,64.7074,243.552,8.5184e-05,1.068e-05,0.0,0 STARLINK-3665,1 52098U 22029L   22237.25002315  .00001068  00000-0  85184-4 0  9998,2 52098  53.2171 131.1190 0001819  64.7074 243.5520 15.08852570 25535,6917.842,95.437,540.965,538.4490000000002,0.0
52098.0,STARLINK-3665,PAYLOAD,2022-08-25 14:00:01,15.08841693,0.0001692,53.2174,129.6211,73.2109,246.6036,0.00067229,0.00010428,0.0,0 STARLINK-3665,1 52098U 22029L   22237.58334491  .00010428  00000-0  67229-3 0  9996,2 52098  53.2174 129.6211 0001692  73.2109 246.6036 15.08841693  1306,6917.875,95.437,540.911,538.57,0.0
52098.0,STARLINK-3665,PAYLOAD,2022-08-25 22:00:00,15.08840057,0.0001715,53.2175,128.1261,68.3506,263.0682,-0.0013648,-0.00021943,0.0,0 STARLINK-3665,1 52098U 22029L   22237.91667824 -.00021943  00000-0 -13648-2 0  9993,2 52098  53.2175 128.1261 0001715  68.3506 263.0682 15.08840057  1301,6917.88,95.438,540.932,538.559,0.0
52098.0,STARLINK-3665,PAYLOAD,2022-08-26 06:00:00,15.08838352,0.0001709,53.2171,126.63,65.0246,277.974,-0.00051775,-8.518e-05,0.0,0 STARLINK-3665,1 52098U 22029L   22238.25001157 -.00008518  00000-0 -51775-3 0  9999,2 52098  53.2171 126.6300 0001709  65.0246 277.9740 15.08838352 25683,6917.885,95.438,540.933,538.568,0.0
52098.0,STARLINK-3665,PAYLOAD,2022-08-26 14:00:01,15.08811762,0.0001621,53.2172,125.1322,74.8987,279.7606,0.0032029,0.00051016,0.0,0 STARLINK-3665,1 52098U 22029L   22238.58335648  .00051016  00000-0  32029-2 0  9999,2 52098  53.2172 125.1322 0001621  74.8987 279.7606 15.08811762  1305,6917.967,95.439,540.953,538.71,0.0
52098.0,STARLINK-3665,PAYLOAD,2022-08-26 22:00:00,15.0885003,0.0001721999999999,53.2171,123.6374,70.0933,296.0846,-0.0013728,-0.00022076,0.0,0 STARLINK-3665,1 52098U 22029L   22238.91667824 -.00022076  00000-0 -13728-2 0  9991,2 52098  53.2171 123.6374 0001722  70.0933 296.0846 15.08850030  1304,6917.85,95.437,540.906,538.523,0.0
52098.0,STARLINK-3665,PAYLOAD,2022-08-27 14:00:01,15.08824534,0.0001633,53.2166,120.6432,77.2107,312.1718,0.0029963,0.00047701,0.0,0 STARLINK-3665,1 52098U 22029L   22239.58334491  .00047701  00000-0  29963-2 0  9994,2 52098  53.2166 120.6432 0001633  77.2107 312.1718 15.08824534  1301,6917.928000000001,95.439,540.922,538.663,0.0
52098.0,STARLINK-3665,PAYLOAD,2022-08-27 20:00:01,15.08878508,0.0001647,53.2166,119.5221,74.1558,233.9186,-0.0040275,-0.00063885,0.0,0 STARLINK-3665,1 52098U 22029L   22239.83334491 -.00063885  00000-0 -40275-2 0  9994,2 52098  53.2166 119.5221 0001647  74.1558 233.9186 15.08878508 25928,6917.763000000001,95.435,540.7669999999998,538.488,0.0
52098.0,STARLINK-3665,PAYLOAD,2022-08-27 22:00:00,15.08869846,0.0001683,53.2164,119.1485,71.303,329.6786,-0.0040969,-0.00064956,0.0,0 STARLINK-3665,1 52098U 22029L   22239.91667824 -.00064956  00000-0 -40969-2 0  9992,2 52098  53.2164 119.1485 0001683  71.3030 329.6786 15.08869846  1308,6917.7890000000025,95.436,540.818,538.49,0.0
52098.0,STARLINK-3665,PAYLOAD,2022-08-28 14:00:01,15.08817088,0.000157,53.2159,116.154,77.9747,346.2058,0.0028038,0.00044589,0.0,0 STARLINK-3665,1 52098U 22029L   22240.58334491  .00044589  00000-0  28038-2 0  9999,2 52098  53.2159 116.1540 0001570  77.9747 346.2058 15.08817088 26049,6917.95,95.439,540.9019999999998,538.729,0.0
52098.0,STARLINK-3665,PAYLOAD,2022-08-28 22:00:00,15.08846634,0.0001666999999999,53.2157,114.6593,71.5676,4.199,-0.0010607,-0.00017133,0.0,0 STARLINK-3665,1 52098U 22029L   22240.91667824 -.00017133  00000-0 -10607-2 0  9995,2 52098  53.2157 114.6593 0001667  71.5676   4.1990 15.08846634  1302,6917.86,95.437,540.878,538.572,0.0
52098.0,STARLINK-3665,PAYLOAD,2022-08-29 04:00:00,15.08849745,0.0001588999999999,53.2154,113.5371,67.2198,287.2419,-0.0015317,-0.00024589,0.0,0 STARLINK-3665,1 52098U 22029L   22241.16667824 -.00024589  00000-0 -15317-2 0  9999,2 52098  53.2154 113.5371 0001589  67.2198 287.2419 15.08849745 26128,6917.851,95.437,540.815,538.616,0.0
52098.0,STARLINK-3665,PAYLOAD,2022-08-29 14:00:01,15.08805467,0.0001515,53.2155,111.6645,77.1086,21.8501,0.002464,0.00039107,0.0,0 STARLINK-3665,1 52098U 22029L   22241.58334491  .00039107  00000-0  24640-2 0  9995,2 52098  53.2155 111.6645 0001515  77.1086  21.8501 15.08805467  1307,6917.986,95.44,540.899,538.803,0.0
52098.0,STARLINK-3665,PAYLOAD,2022-08-29 22:00:00,15.08829885,0.0001621,53.2154,110.1698,70.2312,40.2981,-0.00071908,-0.00011711,0.0,0 STARLINK-3665,1 52098U 22029L   22241.91667824 -.00011711  00000-0 -71908-3 0  9994,2 52098  53.2154 110.1698 0001621  70.2312  40.2981 15.08829885  1309,6917.911,95.438,540.898,538.655,0.0
52098.0,STARLINK-3665,PAYLOAD,2022-08-30 06:00:00,15.08846336,0.0001576999999999,53.2154,108.6729,68.5116,53.5916,-0.0014033,-0.00022556,0.0,0 STARLINK-3665,1 52098U 22029L   22242.25001157 -.00022556  00000-0 -14033-2 0  9997,2 52098  53.2154 108.6729 0001577  68.5116  53.5916 15.08846336 26298,6917.861,95.437,540.817,538.635,0.0
